[{"OBJECT_NAME":"BEIDOU-3 M1 (C19)","OBJECT_ID":"2017-069A","EPOCH":"2026-04-05T15:27:18.861120","MEAN_MOTION":1.86231333,"ECCENTRICITY":0.0012491,"INCLINATION":56.6311,"RA_OF_ASC_NODE":65.472,"ARG_OF_PERICENTER":313.9589,"MEAN_ANOMALY":45.9116,"EPHEMERIS_TYPE":0,"CLASSIFICATION_TYPE":"U","NORAD_CAT_ID":43001,"ELEMENT_SET_NO":999,"REV_AT_EPOCH":5725,"BSTAR":0,"MEAN_MOTION_DOT":-3.4e-7,"MEAN_MOTION_DDOT":0},{"OBJECT_NAME":"BEIDOU-3 M2 (C20)","OBJECT_ID":"2017-069B","EPOCH":"2026-04-05T13:58:51.254688","MEAN_MOTION":1.86230776,"ECCENTRICITY":0.001014,"INCLINATION":56.6304,"RA_OF_ASC_NODE":65.5098,"ARG_OF_PERICENTER":334.4561,"MEAN_ANOMALY":25.4672,"EPHEMERIS_TYPE":0,"CLASSIFICATION_TYPE":"U","NORAD_CAT_ID":43002,"ELEMENT_SET_NO":999,"REV_AT_EPOCH":5724,"BSTAR":0,"MEAN_MOTION_DOT":-3.4e-7,"MEAN_MOTION_DDOT":0},{"OBJECT_NAME":"BEIDOU-3 M7 (C27)","OBJECT_ID":"2018-003A","EPOCH":"2026-04-05T07:46:39.838080","MEAN_MOTION":1.86232513,"ECCENTRICITY":0.0005149,"INCLINATION":54.3931,"RA_OF_ASC_NODE":304.8551,"ARG_OF_PERICENTER":76.5286,"MEAN_ANOMALY":283.5497,"EPHEMERIS_TYPE":0,"CLASSIFICATION_TYPE":"U","NORAD_CAT_ID":43107,"ELEMENT_SET_NO":999,"REV_AT_EPOCH":5599,"BSTAR":0,"MEAN_MOTION_DOT":-5.9e-7,"MEAN_MOTION_DDOT":0},{"OBJECT_NAME":"BEIDOU-3 M8 (C28)","OBJECT_ID":"2018-003B","EPOCH":"2026-04-02T14:02:36.150432","MEAN_MOTION":1.86230868,"ECCENTRICITY":0.00024857,"INCLINATION":54.3877,"RA_OF_ASC_NODE":304.933,"ARG_OF_PERICENTER":292.781,"MEAN_ANOMALY":67.2205,"EPHEMERIS_TYPE":0,"CLASSIFICATION_TYPE":"U","NORAD_CAT_ID":43108,"ELEMENT_SET_NO":999,"REV_AT_EPOCH":5595,"BSTAR":0,"MEAN_MOTION_DOT":-6.5e-7,"MEAN_MOTION_DDOT":0},{"OBJECT_NAME":"BEIDOU-3 M4 (C22)","OBJECT_ID":"2018-018A","EPOCH":"2026-04-04T15:19:11.555616","MEAN_MOTION":1.86231252,"ECCENTRICITY":0.00074932,"INCLINATION":56.5893,"RA_OF_ASC_NODE":65.5716,"ARG_OF_PERICENTER":355.4871,"MEAN_ANOMALY":4.4783,"EPHEMERIS_TYPE":0,"CLASSIFICATION_TYPE":"U","NORAD_CAT_ID":43207,"ELEMENT_SET_NO":999,"REV_AT_EPOCH":5537,"BSTAR":0,"MEAN_MOTION_DOT":-4.0e-7,"MEAN_MOTION_DDOT":0},{"OBJECT_NAME":"BEIDOU-3 M3 (C21)","OBJECT_ID":"2018-018B","EPOCH":"2026-04-05T05:48:05.218848","MEAN_MOTION":1.86231247,"ECCENTRICITY":0.0010164,"INCLINATION":56.5892,"RA_OF_ASC_NODE":65.5556,"ARG_OF_PERICENTER":324.5426,"MEAN_ANOMALY":35.3627,"EPHEMERIS_TYPE":0,"CLASSIFICATION_TYPE":"U","NORAD_CAT_ID":43208,"ELEMENT_SET_NO":999,"REV_AT_EPOCH":5538,"BSTAR":0,"MEAN_MOTION_DOT":-3.6e-7,"MEAN_MOTION_DDOT":0},{"OBJECT_NAME":"BEIDOU-3 M9 (C29)","OBJECT_ID":"2018-029A","EPOCH":"2026-04-05T11:01:12.961056","MEAN_MOTION":1.86228496,"ECCENTRICITY":0.000103,"INCLINATION":54.2599,"RA_OF_ASC_NODE":302.4917,"ARG_OF_PERICENTER":56.13,"MEAN_ANOMALY":303.8969,"EPHEMERIS_TYPE":0,"CLASSIFICATION_TYPE":"U","NORAD_CAT_ID":43245,"ELEMENT_SET_NO":999,"REV_AT_EPOCH":5454,"BSTAR":0,"MEAN_MOTION_DOT":-5.5e-7,"MEAN_MOTION_DDOT":0},{"OBJECT_NAME":"BEIDOU-3 M10 (C30)","OBJECT_ID":"2018-029B","EPOCH":"2026-04-04T20:34:00.712416","MEAN_MOTION":1.86229111,"ECCENTRICITY":0.00051306,"INCLINATION":54.2578,"RA_OF_ASC_NODE":302.5395,"ARG_OF_PERICENTER":31.3928,"MEAN_ANOMALY":328.6559,"EPHEMERIS_TYPE":0,"CLASSIFICATION_TYPE":"U","NORAD_CAT_ID":43246,"ELEMENT_SET_NO":999,"REV_AT_EPOCH":5451,"BSTAR":0,"MEAN_MOTION_DOT":-5.9e-7,"MEAN_MOTION_DDOT":0},{"OBJECT_NAME":"BEIDOU-2 IGSO-7 (C16)","OBJECT_ID":"2018-057A","EPOCH":"2026-03-27T15:08:38.812992","MEAN_MOTION":1.00275701,"ECCENTRICITY":0.01017729,"INCLINATION":55.1838,"RA_OF_ASC_NODE":163.7722,"ARG_OF_PERICENTER":237.2605,"MEAN_ANOMALY":124.1194,"EPHEMERIS_TYPE":0,"CLASSIFICATION_TYPE":"U","NORAD_CAT_ID":43539,"ELEMENT_SET_NO":999,"REV_AT_EPOCH":2831,"BSTAR":0,"MEAN_MOTION_DOT":-1.68e-6,"MEAN_MOTION_DDOT":0},{"OBJECT_NAME":"BEIDOU-3 M5 (C23)","OBJECT_ID":"2018-062A","EPOCH":"2026-04-02T09:30:45.099648","MEAN_MOTION":1.86224644,"ECCENTRICITY":0.00035105,"INCLINATION":54.085,"RA_OF_ASC_NODE":184.881,"ARG_OF_PERICENTER":295.8623,"MEAN_ANOMALY":64.1328,"EPHEMERIS_TYPE":0,"CLASSIFICATION_TYPE":"U","NORAD_CAT_ID":43581,"ELEMENT_SET_NO":999,"REV_AT_EPOCH":5222,"BSTAR":0,"MEAN_MOTION_DOT":8.0e-8,"MEAN_MOTION_DDOT":0},{"OBJECT_NAME":"BEIDOU-3 M6 (C24)","OBJECT_ID":"2018-062B","EPOCH":"2026-04-03T08:00:01.903968","MEAN_MOTION":1.86227743,"ECCENTRICITY":0.00052163,"INCLINATION":54.0846,"RA_OF_ASC_NODE":184.8383,"ARG_OF_PERICENTER":31.289,"MEAN_ANOMALY":328.7793,"EPHEMERIS_TYPE":0,"CLASSIFICATION_TYPE":"U","NORAD_CAT_ID":43582,"ELEMENT_SET_NO":999,"REV_AT_EPOCH":5224,"BSTAR":0,"MEAN_MOTION_DOT":1.4e-7,"MEAN_MOTION_DDOT":0},{"OBJECT_NAME":"BEIDOU-3 M12 (C26)","OBJECT_ID":"2018-067A","EPOCH":"2026-03-30T12:18:45.296064","MEAN_MOTION":1.8622771,"ECCENTRICITY":0.0008139,"INCLINATION":54.1801,"RA_OF_ASC_NODE":183.7084,"ARG_OF_PERICENTER":37.0616,"MEAN_ANOMALY":323.0089,"EPHEMERIS_TYPE":0,"CLASSIFICATION_TYPE":"U","NORAD_CAT_ID":43602,"ELEMENT_SET_NO":999,"REV_AT_EPOCH":5165,"BSTAR":0,"MEAN_MOTION_DOT":-2.6e-7,"MEAN_MOTION_DDOT":0},{"OBJECT_NAME":"BEIDOU-3 M11 (C25)","OBJECT_ID":"2018-067B","EPOCH":"2026-04-03T09:45:31.010688","MEAN_MOTION":1.86227234,"ECCENTRICITY":0.00046423,"INCLINATION":54.1769,"RA_OF_ASC_NODE":183.54,"ARG_OF_PERICENTER":26.6069,"MEAN_ANOMALY":333.4575,"EPHEMERIS_TYPE":0,"CLASSIFICATION_TYPE":"U","NORAD_CAT_ID":43603,"ELEMENT_SET_NO":999,"REV_AT_EPOCH":5175,"BSTAR":0,"MEAN_MOTION_DOT":1.5e-7,"MEAN_MOTION_DDOT":0},{"OBJECT_NAME":"BEIDOU-3 M13 (C32)","OBJECT_ID":"2018-072A","EPOCH":"2026-04-04T23:20:58.102080","MEAN_MOTION":1.86231084,"ECCENTRICITY":0.0009111,"INCLINATION":56.563,"RA_OF_ASC_NODE":65.0735,"ARG_OF_PERICENTER":313.8269,"MEAN_ANOMALY":46.0701,"EPHEMERIS_TYPE":0,"CLASSIFICATION_TYPE":"U","NORAD_CAT_ID":43622,"ELEMENT_SET_NO":999,"REV_AT_EPOCH":5129,"BSTAR":0,"MEAN_MOTION_DOT":-3.9e-7,"MEAN_MOTION_DDOT":0},{"OBJECT_NAME":"BEIDOU-3 M14 (C33)","OBJECT_ID":"2018-072B","EPOCH":"2026-04-05T09:00:25.704000","MEAN_MOTION":1.86231179,"ECCENTRICITY":0.0006896,"INCLINATION":56.5652,"RA_OF_ASC_NODE":65.0544,"ARG_OF_PERICENTER":335.0878,"MEAN_ANOMALY":24.8517,"EPHEMERIS_TYPE":0,"CLASSIFICATION_TYPE":"U","NORAD_CAT_ID":43623,"ELEMENT_SET_NO":999,"REV_AT_EPOCH":5129,"BSTAR":0,"MEAN_MOTION_DOT":-3.6e-7,"MEAN_MOTION_DDOT":0},{"OBJECT_NAME":"BEIDOU-3 M16 (C35)","OBJECT_ID":"2018-078A","EPOCH":"2026-04-04T23:52:31.731744","MEAN_MOTION":1.86232458,"ECCENTRICITY":0.00084015,"INCLINATION":54.1568,"RA_OF_ASC_NODE":302.5515,"ARG_OF_PERICENTER":35.7547,"MEAN_ANOMALY":324.3193,"EPHEMERIS_TYPE":0,"CLASSIFICATION_TYPE":"U","NORAD_CAT_ID":43647,"ELEMENT_SET_NO":999,"REV_AT_EPOCH":5079,"BSTAR":0,"MEAN_MOTION_DOT":-5.8e-7,"MEAN_MOTION_DDOT":0},{"OBJECT_NAME":"BEIDOU-3 M15 (C34)","OBJECT_ID":"2018-078B","EPOCH":"2026-04-04T01:12:19.806336","MEAN_MOTION":1.86232221,"ECCENTRICITY":0.0005403,"INCLINATION":54.1526,"RA_OF_ASC_NODE":302.585,"ARG_OF_PERICENTER":45.0328,"MEAN_ANOMALY":315.0307,"EPHEMERIS_TYPE":0,"CLASSIFICATION_TYPE":"U","NORAD_CAT_ID":43648,"ELEMENT_SET_NO":999,"REV_AT_EPOCH":5079,"BSTAR":0,"MEAN_MOTION_DOT":-6.2e-7,"MEAN_MOTION_DDOT":0}]
